GSAT0101 (PRN E11)      
1 37846U 11060A   21079.82022133 -.00000061  00000-0  00000-0 0  9994
2 37846  56.7938  33.7034 0004399 340.9342  19.0347  1.70475364 58484
GSAT0102 (PRN E12)      
1 37847U 11060B   21079.45820108 -.00000062  00000-0  00000+0 0  9992
2 37847  56.7946  33.7127 0005750 322.0344 221.9736  1.70475576 58607
GSAT0103 (PRN E19)      
1 38857U 12055A   21078.10211101  .00000008  00000-0  00000-0 0  9997
2 38857  55.0243 154.2224 0003990 260.0113 100.0070  1.70473765 52348
GSAT0104 (PRN E20)      
1 38858U 12055B   21079.79631389  .00000009  00000-0  00000-0 0  9999
2 38858  55.0255 154.1754 0002781 264.0993  95.9293  1.70473655 52387
GSAT0201 (PRN E18)      
1 40128U 14050A   21078.83144159 -.00000101  00000-0  00000-0 0  9991
2 40128  50.5060 350.3948 1650971 108.3304 270.2644  1.85518876 42788
GSAT0202 (PRN E14)      
1 40129U 14050B   21079.09413672 -.00000099  00000-0  00000-0 0  9996
2 40129  50.5384 349.4309 1648355 109.1475 269.3615  1.85519902 44958
GSAT0203 (PRN E26)      
1 40544U 15017A   21079.01494301 -.00000064  00000-0  00000-0 0  9993
2 40544  56.5879  33.8209 0004462 280.1421  79.7920  1.70474741 36556
GSAT0204 (PRN E22)      
1 40545U 15017B   21079.38235057 -.00000063  00000-0  00000-0 0  9994
2 40545  56.5945  33.8278 0001973 270.4375  89.5249  1.70475144 37227
GSAT0205 (PRN E24)      
1 40889U 15045A   21079.03744182  .00000030  00000-0  00000-0 0  9995
2 40889  55.9421 274.5039 0005818  25.1759 334.8574  1.70475224 34360
GSAT0206 (PRN E30)      
1 40890U 15045B   21076.91061311  .00000018  00000-0  00000-0 0  9993
2 40890  55.9422 274.5593 0003883  23.9646 336.0549  1.70475202 34350
GSAT0209 (PRN E09)      
1 41174U 15079A   21078.84427913  .00000009  00000-0  00000-0 0  9994
2 41174  55.0400 153.9019 0004447 305.2177  54.8030  1.70473822 32127
GSAT0208 (PRN E08)      
1 41175U 15079B   21079.06396967  .00000009  00000-0  00000-0 0  9994
2 41175  55.0381 153.8951 0003671 304.3354  55.6918  1.70473929 32543
GSAT0211 (PRN E02)      
1 41549U 16030A   21078.01201761  .00000025  00000-0  00000-0 0  9996
2 41549  56.0850 274.4137 0003807 354.1692   5.8288  1.70474983 30002
GSAT0210 (PRN E01)      
1 41550U 16030B   21079.47803792  .00000033  00000-0  00000-0 0  9990
2 41550  56.0841 274.3750 0002049 332.8737  27.1218  1.70475126 30026
GSAT0207 (PRN E07)      
1 41859U 16069A   21077.37722247  .00000006  00000-0  00000+0 0  9995
2 41859  54.7006 154.2367 0004460 291.0440  68.9726  1.70473835 26951
GSAT0212 (PRN E03)      
1 41860U 16069B   21079.57697913  .00000009  00000-0  00000-0 0  9996
2 41860  54.6964 154.1739 0003241 313.1953  46.8381  1.70473869 27015
GSAT0213 (PRN E04)      
1 41861U 16069C   21079.35608896  .00000008  00000-0  00000-0 0  9994
2 41861  54.6985 154.1845 0004066 268.9825  91.0317  1.70473899 26875
GSAT0214 (PRN E05)      
1 41862U 16069D   21078.91655049  .00000008  00000-0  00000-0 0  9998
2 41862  54.6968 154.1918 0003211 272.9331  87.0918  1.70473914 26999
GSAT0215 (PRN E21)      
1 43055U 17079A   21078.82060565  .00000029  00000-0  00000-0 0  9992
2 43055  56.0600 274.2309 0001488 344.3027  15.6967  1.70474230 20337
GSAT0216 (PRN E25)      
1 43056U 17079B   21077.93999347  .00000024  00000-0  00000-0 0  9998
2 43056  56.0611 274.2546 0002795 307.2877  52.6889  1.70474353 20336
GSAT0217 (PRN E27)      
1 43057U 17079C   21076.98693555  .00000019  00000-0  00000+0 0  9998
2 43057  56.0612 274.2813 0003059 327.9623  32.0200  1.70474266 20306
GSAT0218 (PRN E31)      
1 43058U 17079D   21078.38010733  .00000027  00000-0  00000-0 0  9996
2 43058  56.0590 274.2403 0003019 297.4668  62.5054  1.70474303 20355
GSAT0221 (PRN E15)      
1 43564U 18060A   21077.69189398 -.00000068  00000-0  00000-0 0  9992
2 43564  56.9723  33.5558 0005537 290.9374  68.9847  1.70475781 16491
GSAT0222 (PRN E33)      
1 43565U 18060B   21079.08491022 -.00000063  00000-0  00000-0 0  9993
2 43565  56.9753  33.5177 0005394 298.4005  61.5295  1.70475753 16560
GSAT0219 (PRN E36)      
1 43566U 18060C   21079.30549423 -.00000063  00000-0  00000-0 0  9998
2 43566  56.9763  33.5136 0005068 300.7122  59.2227  1.70475699 16548
GSAT0220 (PRN E13)      
1 43567U 18060D   21079.52527093 -.00000062  00000-0  00000-0 0  9991
2 43567  56.9753  33.5084 0005139 296.2002  63.7321  1.70475796 16537
